OBJECT_NAME,OBJECT_ID,EPOCH,MEAN_MOTION,ECCENTRICITY,INCLINATION,RA_OF_ASC_NODE,ARG_OF_PERICENTER,MEAN_ANOMALY,EPHEMERIS_TYPE,CLASSIFICATION_TYPE,NORAD_CAT_ID,ELEMENT_SET_NO,REV_AT_EPOCH,BSTAR,MEAN_MOTION_DOT,MEAN_MOTION_DDOT
HAWK-5A,2022-057AB,2026-07-02T17:09:11.353536,15.51945485,.00044374,97.6623,343.5718,24.8200,335.3265,0,U,52757,999,22875,.32721611E-3,.19571E-3,0
HAWK-6B,2023-011A,2026-07-02T14:13:39.908064,15.23065766,.00021456,40.4980,262.2103,166.4516,193.6351,0,U,55324,999,19019,.20539676E-3,.4749E-4,0
HAWK-6C,2023-011C,2026-07-02T14:12:46.051488,15.23063656,.00024982,40.4966,259.0504,145.2091,214.8882,0,U,55326,999,19020,.21112685E-3,.4886E-4,0
HAWK-6A,2023-011D,2026-07-02T14:12:49.135968,15.23064542,.00020541,40.4977,260.6761,144.3661,215.7285,0,U,55327,999,19020,.20988805E-3,.4857E-4,0
HAWK-7A,2023-054P,2026-07-02T18:25:21.206784,15.27523274,.00029155,97.2681,70.7088,19.8354,340.2999,0,U,56191,999,17940,.24302477E-3,.6472E-4,0
HAWK-7B,2023-054R,2026-07-02T15:16:35.731488,15.27520585,.00026745,97.2708,68.8505,40.2087,319.9350,0,U,56193,999,17938,.24357107E-3,.6486E-4,0
HAWK-7C,2023-054Y,2026-07-02T10:33:26.089056,15.27518091,.0002416,97.2684,69.4228,29.6141,330.5235,0,U,56200,999,17935,.25495E-3,.6792E-4,0
